{"type": "Feature", "id": "badcf4ee-3bb9-50c1-8086-e0d7e51c55c9", "properties": {"territory_id": "badcf4ee-3bb9-50c1-8086-e0d7e51c55c9", "slug": "jayanagar-4th-block", "name": "Jayanagar 4th Block", "kind": "block", "version": 1}, "geometry": {"type": "MultiPolygon", "coordinates": [[[[77.5808104, 12.9308222], [77.5808281, 12.9279353], [77.5808466, 12.9249446], [77.5809276, 12.9219326], [77.5858629, 12.9218734], [77.5859325, 12.9262965], [77.58619, 12.9268134], [77.5863704, 12.9274676], [77.5863413, 12.928155], [77.5861417, 12.9284552], [77.5860636, 12.9287789], [77.5860614, 12.9307553], [77.5808104, 12.9308222]]]]}}