{"type": "Feature", "id": "b32a7407-6fb2-52da-bb84-92dcc351e25c", "properties": {"territory_id": "b32a7407-6fb2-52da-bb84-92dcc351e25c", "slug": "jayanagar-9th-block", "name": "Jayanagar 9th Block", "kind": "block", "version": 1}, "geometry": {"type": "MultiPolygon", "coordinates": [[[[77.5859176, 12.9198947], [77.5859128, 12.9195118], [77.5858835, 12.9171785], [77.5946851, 12.9169848], [77.5949882, 12.9169801], [77.5985958, 12.9169001], [77.5986561, 12.9189254], [77.5987396, 12.9204947], [77.5933285, 12.9205357], [77.5859264, 12.9205918], [77.5859176, 12.9198947]]]]}}