{"type": "Feature", "id": "b498ec01-b351-5bca-9f40-168e42aebf3c", "properties": {"territory_id": "b498ec01-b351-5bca-9f40-168e42aebf3c", "slug": "krishna-rao-park", "name": "Krishna Rao Park", "kind": "park", "version": 1}, "geometry": {"type": "MultiPolygon", "coordinates": [[[[77.5748108, 12.9426463], [77.5748119, 12.943607], [77.5766273, 12.943574], [77.576745, 12.9434866], [77.5767506, 12.940876], [77.5766197, 12.9406825], [77.5739832, 12.9407323], [77.5739423, 12.9407711], [77.5739268, 12.9408316], [77.5739672, 12.9419229], [77.5743972, 12.9419215], [77.5746996, 12.9424515], [77.5748108, 12.9426463]]]]}}