{"type": "Feature", "id": "c71f6ead-d6ed-5520-941c-0147b06f3f8f", "properties": {"territory_id": "c71f6ead-d6ed-5520-941c-0147b06f3f8f", "slug": "lalbagh", "name": "Lalbagh Botanical Garden", "kind": "park", "version": 1}, "geometry": {"type": "MultiPolygon", "coordinates": [[[[77.5802728, 12.9481591], [77.5803569, 12.9482124], [77.5803407, 12.9485219], [77.580459, 12.9487289], [77.5817813, 12.9493759], [77.5820348, 12.9495386], [77.5821462, 12.9497122], [77.5833306, 12.9523861], [77.5840921, 12.9538415], [77.584278, 12.9539339], [77.5850367, 12.9539746], [77.5851866, 12.9539268], [77.5852316, 12.9539039], [77.5853473, 12.9538696], [77.5854175, 12.953856], [77.5858024, 12.9537308], [77.5868953, 12.9527583], [77.5871153, 12.9526437], [77.5900878, 12.9516346], [77.5901822, 12.9515669], [77.5902937, 12.9512837], [77.5903317, 12.9512485], [77.5904356, 12.9512113], [77.5904871, 12.9511957], [77.5908723, 12.9513445], [77.5909981, 12.9512932], [77.5907255, 12.9502953], [77.5914955, 12.950018], [77.5915477, 12.9497469], [77.5932065, 12.9489694], [77.5924229, 12.9482711], [77.5919773, 12.948055], [77.5908213, 12.9474739], [77.5903907, 12.9469784], [77.58996, 12.9465968], [77.5898271, 12.9464877], [77.5896883, 12.9463955], [77.5880534, 12.946299], [77.5880204, 12.9463545], [77.5879707, 12.9463969], [77.5878878, 12.946405], [77.5878153, 12.9463827], [77.5877685, 12.9463498], [77.5877496, 12.9463288], [77.5877336, 12.9463049], [77.5877144, 12.9462642], [77.5877136, 12.9462151], [77.5862034, 12.9457658], [77.5858507, 12.9455342], [77.5855646, 12.9452955], [77.5851413, 12.9444459], [77.5850535, 12.9440507], [77.5848719, 12.9439061], [77.5844438, 12.943896], [77.5828886, 12.9438593], [77.5826719, 12.9438542], [77.5824992, 12.9438346], [77.5823779, 12.943813], [77.580298, 12.9438111], [77.5801829, 12.9439128], [77.5801887, 12.9458563], [77.580321, 12.9459149], [77.5803259, 12.9462608], [77.5802311, 12.9462624], [77.58023, 12.94672], [77.580154, 12.9467174], [77.5801473, 12.9472421], [77.5801308, 12.9479313], [77.5801776, 12.9480565], [77.5802728, 12.9481591]]]]}}