{"type": "Feature", "id": "76de4388-8752-5c31-80b3-4ad885cd2dd6", "properties": {"territory_id": "76de4388-8752-5c31-80b3-4ad885cd2dd6", "slug": "madhavan-park", "name": "Madhavan Park", "kind": "park", "version": 1}, "geometry": {"type": "MultiPolygon", "coordinates": [[[[77.5851422, 12.9365545], [77.585401, 12.9365652], [77.5854384, 12.9365668], [77.5859373, 12.9365876], [77.586148, 12.9365196], [77.5863849, 12.9363551], [77.5864077, 12.9360735], [77.5853257, 12.9360644], [77.5850233, 12.9361749], [77.585027, 12.9363806], [77.5851422, 12.9365545]]]]}}