{"type": "Feature", "id": "3763f20b-ffec-56f6-9a08-38fa0382055c", "properties": {"territory_id": "3763f20b-ffec-56f6-9a08-38fa0382055c", "slug": "puttenahalli-lake", "name": "Puttenahalli Lake", "kind": "lake", "version": 1}, "geometry": {"type": "MultiPolygon", "coordinates": [[[[77.5733095, 13.1102818], [77.5739184, 13.110321], [77.5743744, 13.1103105], [77.575002, 13.1104594], [77.5753239, 13.110483], [77.5756645, 13.1106449], [77.5762734, 13.1108931], [77.5764611, 13.1109741], [77.576783, 13.1110159], [77.577019, 13.1108696], [77.5778156, 13.1109297], [77.5784728, 13.1110185], [77.5790112, 13.1111961], [77.5789743, 13.1118779], [77.5792921, 13.1118984], [77.5791863, 13.1136517], [77.5791273, 13.1136675], [77.579091, 13.1136773], [77.5790051, 13.1130111], [77.5785277, 13.112797], [77.5773582, 13.1122797], [77.5756261, 13.1118186], [77.5754056, 13.1117599], [77.5752729, 13.1114861], [77.5752193, 13.1113738], [77.5749791, 13.11118], [77.5737922, 13.111151], [77.5735295, 13.1111491], [77.5731298, 13.1111282], [77.572875, 13.1110786], [77.5728267, 13.1110237], [77.5727168, 13.1107964], [77.5726631, 13.1105927], [77.5726658, 13.1104908], [77.5727946, 13.1104856], [77.572843, 13.110446], [77.5729313, 13.1103706], [77.5733095, 13.1102818]], [[77.5744049, 13.1108444], [77.5744145, 13.1108627], [77.5744304, 13.1108761], [77.5744504, 13.1108827], [77.5744715, 13.1108814], [77.5744908, 13.1108722], [77.574505, 13.1108566], [77.5745119, 13.1108368], [77.5745105, 13.1108159], [77.574501, 13.1107972], [77.5744847, 13.1107834], [77.5744643, 13.1107768], [77.5744428, 13.1107784], [77.5744236, 13.1107879], [77.5744096, 13.1108039], [77.5744031, 13.1108239], [77.5744049, 13.1108444]], [[77.5769624, 13.1111507], [77.576972, 13.111169], [77.5769879, 13.1111824], [77.5770079, 13.111189], [77.577029, 13.1111877], [77.5770483, 13.1111785], [77.5770625, 13.1111629], [77.5770694, 13.1111431], [77.577068, 13.1111222], [77.5770585, 13.1111035], [77.5770422, 13.1110897], [77.5770218, 13.1110831], [77.5770003, 13.1110847], [77.5769811, 13.1110942], [77.5769671, 13.1111102], [77.5769606, 13.1111302], [77.5769624, 13.1111507]], [[77.5773758, 13.1117708], [77.5773597, 13.1116846], [77.5772846, 13.1116507], [77.577129, 13.1116036], [77.5769895, 13.111588], [77.576783, 13.1115984], [77.5767213, 13.1116271], [77.576665, 13.1117107], [77.5767347, 13.1117865], [77.5769225, 13.1118231], [77.5773382, 13.1118126], [77.5773758, 13.1117708]], [[77.5767622, 13.111933], [77.5767782, 13.1119465], [77.5767982, 13.111953], [77.5768192, 13.1119517], [77.5768385, 13.1119426], [77.5768527, 13.1119269], [77.5768596, 13.1119071], [77.5768582, 13.1118862], [77.5768487, 13.1118675], [77.5768324, 13.1118537], [77.576812, 13.1118471], [77.5767905, 13.1118487], [77.5767713, 13.1118582], [77.5767573, 13.1118742], [77.5767508, 13.1118942], [77.5767526, 13.1119147], [77.5767622, 13.111933]], [[77.5780705, 13.1124134], [77.5780329, 13.1122463], [77.5780463, 13.1121444], [77.5780812, 13.1121496], [77.5781777, 13.1122227], [77.5782824, 13.1123952], [77.5783494, 13.1123821], [77.5784513, 13.1122541], [77.578674, 13.1121], [77.5786981, 13.1119694], [77.5787759, 13.1118596], [77.5787598, 13.1117891], [77.578733, 13.111763], [77.5785828, 13.111763], [77.5784379, 13.111716], [77.578395, 13.1116611], [77.5784057, 13.1115958], [77.5783709, 13.11146], [77.5783494, 13.1114338], [77.5782824, 13.111426], [77.5783145, 13.1117525], [77.5782314, 13.1118309], [77.5781938, 13.1120007], [77.5781268, 13.1120242], [77.577998, 13.1119615], [77.577931, 13.1119485], [77.5778961, 13.1119563], [77.5778425, 13.1120059], [77.5778639, 13.1121992], [77.5779122, 13.1124396], [77.5779819, 13.1124526], [77.5780705, 13.1124134]]]]}}