{"type": "Feature", "id": "f204e9c5-c0fa-5b91-bff5-a10efeb40e96", "properties": {"territory_id": "f204e9c5-c0fa-5b91-bff5-a10efeb40e96", "slug": "ragigudda", "name": "Ragigudda", "kind": "landmark", "version": 1}, "geometry": {"type": "MultiPolygon", "coordinates": [[[[77.5951147, 12.9144125], [77.5953063, 12.9144661], [77.5954713, 12.913972], [77.5951164, 12.9137733], [77.5951147, 12.9144125]]], [[[77.5942829, 12.9148398], [77.5942709, 12.9145665], [77.593857, 12.9145837], [77.5938689, 12.914857], [77.5942829, 12.9148398]]]]}}