{"type": "Feature", "id": "fffd3011-02ab-55f0-b5fb-71758f842b98", "properties": {"territory_id": "fffd3011-02ab-55f0-b5fb-71758f842b98", "slug": "sarakki-lake", "name": "Sarakki Lake", "kind": "lake", "version": 1}, "geometry": {"type": "MultiPolygon", "coordinates": [[[[77.5812712, 12.9015884], [77.581147, 12.9014672], [77.5812194, 12.9013365], [77.5812167, 12.9012815], [77.5811362, 12.9012384], [77.5811362, 12.9011783], [77.581332, 12.9010528], [77.5815908, 12.8990723], [77.5814997, 12.8987703], [77.581504, 12.8986286], [77.5814694, 12.8985712], [77.5813874, 12.8985383], [77.5807983, 12.8980853], [77.5805196, 12.8979328], [77.5797555, 12.897648], [77.5788883, 12.8972832], [77.5784656, 12.8970934], [77.5771642, 12.8963158], [77.5755022, 12.89534], [77.5747983, 12.8949009], [77.5747463, 12.8949055], [77.574711, 12.8949348], [77.5746761, 12.8949962], [77.574656, 12.8950799], [77.5746617, 12.8951561], [77.5753829, 12.895961], [77.5760509, 12.8966154], [77.5769394, 12.8978694], [77.5774664, 12.8988558], [77.5777316, 12.8995519], [77.5779693, 12.9003155], [77.5788003, 12.9012524], [77.5793192, 12.9017806], [77.5799704, 12.9017321], [77.580913, 12.9016926], [77.5812596, 12.9016463], [77.5812712, 12.9015884]], [[77.5778693, 12.8981036], [77.5778237, 12.8978055], [77.5778854, 12.8975676], [77.5779116, 12.8975318], [77.5779444, 12.8975018], [77.5779827, 12.8974785], [77.5780249, 12.897463], [77.578067, 12.8974561], [77.5781098, 12.8974569], [77.5781516, 12.8974654], [77.5781912, 12.8974813], [77.578387, 12.8976408], [77.5784374, 12.8976731], [77.5784833, 12.8977113], [77.578524, 12.8977548], [77.5785586, 12.8978029], [77.5785867, 12.8978548], [77.5786079, 12.8979097], [77.5786219, 12.8979668], [77.5786284, 12.8980252], [77.5786766, 12.8983598], [77.5786391, 12.8986579], [77.5786326, 12.8986941], [77.5786176, 12.8987278], [77.5785949, 12.8987572], [77.5785658, 12.8987805], [77.5785318, 12.8987965], [77.5784951, 12.8988042], [77.5784575, 12.8988034], [77.5784211, 12.8987939], [77.5783881, 12.8987765], [77.5783601, 12.898752], [77.5781268, 12.8985768], [77.5779176, 12.8982213], [77.5778693, 12.8981036]]], [[[77.5786498, 12.9018371], [77.5787799, 12.9018031], [77.5788765, 12.9017443], [77.5789556, 12.9017456], [77.579028, 12.9017888], [77.5790661, 12.9017248], [77.5779816, 12.9005168], [77.5780021, 12.901407], [77.5780061, 12.9017299], [77.5781245, 12.9017777], [77.5781375, 12.9018319], [77.5782622, 12.9018541], [77.5786498, 12.9018371]]]]}}